{"type": "FeatureCollection", "features": [ {"type": "Feature", "properties": {"norad_id": 41175, "name": "GSAT0208 (GALILEO 11)", "group": "galileo", "lat": -37.06920069570848, "lon": -42.8045258702273, "alt_km": 23230.357892401877, "timestamp": "2025-12-18T08:58:43.674173+00:00", "meta": {"OBJECT_NAME": "GSAT0208 (GALILEO 11)", "OBJECT_ID": "2015-079B", "EPOCH": "2025-12-12T17:24:26.771040", "MEAN_MOTION": 1.70474307, "ECCENTRICITY": 0.00018806, "INCLINATION": 55.7111, "RA_OF_ASC_NODE": 106.3784, "ARG_OF_PERICENTER": 358.3144, "MEAN_ANOMALY": 1.6545, "EPHEMERIS_TYPE": 0, "CLASSIFICATION_TYPE": "U", "NORAD_CAT_ID": 41175, "ELEMENT_SET_NO": 999, "REV_AT_EPOCH": 6201, "BSTAR": 0, "MEAN_MOTION_DOT": 4e-08, "MEAN_MOTION_DDOT": 0}, "tle": {"line1": "1 41175U 15079B   25346.72530985  .00000004  00000+0  00000+0 0  9991", "line2": "2 41175  55.7111 106.3784 0001880 358.3144   1.6545  1.70474307 62017"}}, "geometry": {"type": "Point", "coordinates": [-42.8045258702273, -37.06920069570848]}}, {"type": "Feature", "properties": {"norad_id": 41549, "name": "GSAT0211 (GALILEO 14)", "group": "galileo", "lat": 23.669456055643025, "lon": 28.911992274359413, "alt_km": 23227.80260866102, "timestamp": "2025-12-18T08:58:43.674184+00:00", "meta": {"OBJECT_NAME": "GSAT0211 (GALILEO 14)", "OBJECT_ID": "2016-030A", "EPOCH": "2025-12-14T00:32:28.498848", "MEAN_MOTION": 1.70473201, "ECCENTRICITY": 0.000407, "INCLINATION": 55.1518, "RA_OF_ASC_NODE": 226.7881, "ARG_OF_PERICENTER": 16.5595, "MEAN_ANOMALY": 343.5367, "EPHEMERIS_TYPE": 0, "CLASSIFICATION_TYPE": "U", "NORAD_CAT_ID": 41549, "ELEMENT_SET_NO": 999, "REV_AT_EPOCH": 5951, "BSTAR": 0, "MEAN_MOTION_DOT": 2.8e-07, "MEAN_MOTION_DDOT": 0}, "tle": {"line1": "1 41549U 16030A   25348.02255207  .00000028  00000+0  00000+0 0  9996", "line2": "2 41549  55.1518 226.7881 0004070  16.5595 343.5367  1.70473201 59512"}}, "geometry": {"type": "Point", "coordinates": [28.911992274359413, 23.669456055643025]}}, {"type": "Feature", "properties": {"norad_id": 41550, "name": "GSAT0210 (GALILEO 13)", "group": "galileo", "lat": -6.018242759537183, "lon": -137.53093000429362, "alt_km": 23224.532917381523, "timestamp": "2025-12-18T08:58:43.674195+00:00", "meta": {"OBJECT_NAME": "GSAT0210 (GALILEO 13)", "OBJECT_ID": "2016-030B", "EPOCH": "2025-12-17T05:06:34.590240", "MEAN_MOTION": 1.70473746, "ECCENTRICITY": 9.221e-05, "INCLINATION": 55.1502, "RA_OF_ASC_NODE": 226.6984, "ARG_OF_PERICENTER": 234.8094, "MEAN_ANOMALY": 125.2822, "EPHEMERIS_TYPE": 0, "CLASSIFICATION_TYPE": "U", "NORAD_CAT_ID": 41550, "ELEMENT_SET_NO": 999, "REV_AT_EPOCH": 5956, "BSTAR": 0, "MEAN_MOTION_DOT": 5.5e-07, "MEAN_MOTION_DDOT": 0}, "tle": {"line1": "1 41550U 16030B   25351.21290035  .00000055  00000+0  00000+0 0  9991", "line2": "2 41550  55.1502 226.6984 0000922 234.8094 125.2822  1.70473746 59561"}}, "geometry": {"type": "Point", "coordinates": [-137.53093000429362, -6.018242759537183]}}, {"type": "Feature", "properties": {"norad_id": 41859, "name": "GSAT0207 (GALILEO 15)", "group": "galileo", "lat": -1.59675785986939, "lon": -72.81486551474804, "alt_km": 23227.707947162853, "timestamp": "2025-12-18T08:58:43.674207+00:00", "meta": {"OBJECT_NAME": "GSAT0207 (GALILEO 15)", "OBJECT_ID": "2016-069A", "EPOCH": "2025-12-13T09:14:27.730752", "MEAN_MOTION": 1.70474447, "ECCENTRICITY": 0.00022423, "INCLINATION": 55.3826, "RA_OF_ASC_NODE": 106.2323, "ARG_OF_PERICENTER": 321.9482, "MEAN_ANOMALY": 38.0041, "EPHEMERIS_TYPE": 0, "CLASSIFICATION_TYPE": "U", "NORAD_CAT_ID": 41859, "ELEMENT_SET_NO": 999, "REV_AT_EPOCH": 5623, "BSTAR": 0, "MEAN_MOTION_DOT": 0, "MEAN_MOTION_DDOT": 0}, "tle": {"line1": "1 41859U 16069A   25347.38504318  .00000000  00000+0  00000+0 0  9990", "line2": "2 41859  55.3826 106.2323 0002242 321.9482  38.0041  1.70474447 56234"}}, "geometry": {"type": "Point", "coordinates": [-72.81486551474804, -1.59675785986939]}}, {"type": "Feature", "properties": {"norad_id": 41860, "name": "GSAT0212 (GALILEO 16)", "group": "galileo", "lat": -55.35855209040914, "lon": 19.161500274430306, "alt_km": 23230.227245254773, "timestamp": "2025-12-18T08:58:43.674218+00:00", "meta": {"OBJECT_NAME": "GSAT0212 (GALILEO 16)", "OBJECT_ID": "2016-069B", "EPOCH": "2025-12-17T08:16:27.265728", "MEAN_MOTION": 1.70474701, "ECCENTRICITY": 0.00020752, "INCLINATION": 55.3825, "RA_OF_ASC_NODE": 106.1181, "ARG_OF_PERICENTER": 22.8873, "MEAN_ANOMALY": 337.0809, "EPHEMERIS_TYPE": 0, "CLASSIFICATION_TYPE": "U", "NORAD_CAT_ID": 41860, "ELEMENT_SET_NO": 999, "REV_AT_EPOCH": 5655, "BSTAR": 0, "MEAN_MOTION_DOT": -9e-08, "MEAN_MOTION_DDOT": 0}, "tle": {"line1": "1 41860U 16069B   25351.34476002 -.00000009  00000+0  00000+0 0  9991", "line2": "2 41860  55.3825 106.1181 0002075  22.8873 337.0809  1.70474701 56553"}}, "geometry": {"type": "Point", "coordinates": [19.161500274430306, -55.35855209040914]}}, {"type": "Feature", "properties": {"norad_id": 41861, "name": "GSAT0213 (GALILEO 17)", "group": "galileo", "lat": 36.427025390264575, "lon": 136.69139678106492, "alt_km": 23221.878401504804, "timestamp": "2025-12-18T08:58:43.674230+00:00", "meta": {"OBJECT_NAME": "GSAT0213 (GALILEO 17)", "OBJECT_ID": "2016-069C", "EPOCH": "2025-12-17T17:05:43.808640", "MEAN_MOTION": 1.70474957, "ECCENTRICITY": 0.00025722, "INCLINATION": 55.385, "RA_OF_ASC_NODE": 106.1156, "ARG_OF_PERICENTER": 282.262, "MEAN_ANOMALY": 77.6683, "EPHEMERIS_TYPE": 0, "CLASSIFICATION_TYPE": "U", "NORAD_CAT_ID": 41861, "ELEMENT_SET_NO": 999, "REV_AT_EPOCH": 5642, "BSTAR": 0, "MEAN_MOTION_DOT": -9e-08, "MEAN_MOTION_DDOT": 0}, "tle": {"line1": "1 41861U 16069C   25351.71231260 -.00000009  00000+0  00000+0 0  9998", "line2": "2 41861  55.3850 106.1156 0002572 282.2620  77.6683  1.70474957 56424"}}, "geometry": {"type": "Point", "coordinates": [136.69139678106492, 36.427025390264575]}}, {"type": "Feature", "properties": {"norad_id": 41862, "name": "GSAT0214 (GALILEO 18)", "group": "galileo", "lat": -34.47250960830253, "lon": 77.80596197493901, "alt_km": 23222.57310419431, "timestamp": "2025-12-18T08:58:43.674241+00:00", "meta": {"OBJECT_NAME": "GSAT0214 (GALILEO 18)", "OBJECT_ID": "2016-069D", "EPOCH": "2025-12-14T22:12:36.299232", "MEAN_MOTION": 1.70474813, "ECCENTRICITY": 0.00014239, "INCLINATION": 55.3815, "RA_OF_ASC_NODE": 106.1855, "ARG_OF_PERICENTER": 290.4821, "MEAN_ANOMALY": 69.4663, "EPHEMERIS_TYPE": 0, "CLASSIFICATION_TYPE": "U", "NORAD_CAT_ID": 41862, "ELEMENT_SET_NO": 999, "REV_AT_EPOCH": 5650, "BSTAR": 0, "MEAN_MOTION_DOT": -6e-08, "MEAN_MOTION_DDOT": 0}, "tle": {"line1": "1 41862U 16069D   25348.92542013 -.00000006  00000+0  00000+0 0  9996", "line2": "2 41862  55.3815 106.1855 0001423 290.4821  69.4663  1.70474813 56507"}}, "geometry": {"type": "Point", "coordinates": [77.80596197493901, -34.47250960830253]}}, {"type": "Feature", "properties": {"norad_id": 43055, "name": "GSAT0215 (GALILEO 19)", "group": "galileo", "lat": 12.817755475792598, "lon": -124.3838203644381, "alt_km": 23217.67434684729, "timestamp": "2025-12-18T08:58:43.674252+00:00", "meta": {"OBJECT_NAME": "GSAT0215 (GALILEO 19)", "OBJECT_ID": "2017-079A", "EPOCH": "2025-12-17T04:12:33.509376", "MEAN_MOTION": 1.70474116, "ECCENTRICITY": 0.00012477, "INCLINATION": 55.1286, "RA_OF_ASC_NODE": 226.5156, "ARG_OF_PERICENTER": 341.6592, "MEAN_ANOMALY": 18.4365, "EPHEMERIS_TYPE": 0, "CLASSIFICATION_TYPE": "U", "NORAD_CAT_ID": 43055, "ELEMENT_SET_NO": 999, "REV_AT_EPOCH": 4988, "BSTAR": 0, "MEAN_MOTION_DOT": 5.5e-07, "MEAN_MOTION_DDOT": 0}, "tle": {"line1": "1 43055U 17079A   25351.17538784  .00000055  00000+0  00000+0 0  9998", "line2": "2 43055  55.1286 226.5156 0001247 341.6592  18.4365  1.70474116 49884"}}, "geometry": {"type": "Point", "coordinates": [-124.3838203644381, 12.817755475792598]}}, {"type": "Feature", "properties": {"norad_id": 43056, "name": "GSAT0216 (GALILEO 20)", "group": "galileo", "lat": -13.816909707522637, "lon": 56.36135856161027, "alt_km": 23228.326232038537, "timestamp": "2025-12-18T08:58:43.674263+00:00", "meta": {"OBJECT_NAME": "GSAT0216 (GALILEO 20)", "OBJECT_ID": "2017-079B", "EPOCH": "2025-12-16T21:07:19.515072", "MEAN_MOTION": 1.70474167, "ECCENTRICITY": 0.00024195, "INCLINATION": 55.129, "RA_OF_ASC_NODE": 226.5236, "ARG_OF_PERICENTER": 322.2527, "MEAN_ANOMALY": 37.829, "EPHEMERIS_TYPE": 0, "CLASSIFICATION_TYPE": "U", "NORAD_CAT_ID": 43056, "ELEMENT_SET_NO": 999, "REV_AT_EPOCH": 4989, "BSTAR": 0, "MEAN_MOTION_DOT": 5.3e-07, "MEAN_MOTION_DDOT": 0}, "tle": {"line1": "1 43056U 17079B   25350.88008698  .00000053  00000+0  00000+0 0  9990", "line2": "2 43056  55.1290 226.5236 0002419 322.2527  37.8290  1.70474167 49893"}}, "geometry": {"type": "Point", "coordinates": [56.36135856161027, -13.816909707522637]}}, {"type": "Feature", "properties": {"norad_id": 43057, "name": "GSAT0217 (GALILEO 21)", "group": "galileo", "lat": 46.13523097890451, "lon": -87.03902260163255, "alt_km": 23214.414016309085, "timestamp": "2025-12-18T08:58:43.674274+00:00", "meta": {"OBJECT_NAME": "GSAT0217 (GALILEO 21)", "OBJECT_ID": "2017-079C", "EPOCH": "2025-12-16T12:20:28.313376", "MEAN_MOTION": 1.70474073, "ECCENTRICITY": 0.00027918, "INCLINATION": 55.1271, "RA_OF_ASC_NODE": 226.5317, "ARG_OF_PERICENTER": 347.0782, "MEAN_ANOMALY": 13.0112, "EPHEMERIS_TYPE": 0, "CLASSIFICATION_TYPE": "U", "NORAD_CAT_ID": 43057, "ELEMENT_SET_NO": 999, "REV_AT_EPOCH": 4987, "BSTAR": 0, "MEAN_MOTION_DOT": 5e-07, "MEAN_MOTION_DDOT": 0}, "tle": {"line1": "1 43057U 17079C   25350.51421659  .00000050  00000+0  00000+0 0  9994", "line2": "2 43057  55.1271 226.5317 0002791 347.0782  13.0112  1.70474073 49877"}}, "geometry": {"type": "Point", "coordinates": [-87.03902260163255, 46.13523097890451]}}]}